YAM-7                   
1 60504U 24149AN  26068.71799904  .00009009  00000+0  30984-3 0  9997
2 60504  97.3828 149.4631 0001973 296.5121  63.5918 15.30304554 86835
STARLINK-34833          
1 65218U 25176W   26068.45919441  .00030699  00000+0  10451-2 0  9991
2 65218  53.1574 153.9056 0001028  74.9373 285.1742 15.30175990 33085
